{
  "type": "FeatureCollection",
  "features": [
    {
      "type": "Feature",
      "properties": {
        "norad_id": 39773,
        "name": "EUTELSAT 3B",
        "group": "eutelsat",
        "lat": 0.06033512930588514,
        "lon": 35.59572501066721,
        "alt_km": 35804.84168017061,
        "timestamp": "2025-12-13T20:38:50.666772+00:00",
        "meta_object_name": "EUTELSAT 3B",
        "meta_object_id": "2014-030A",
        "meta_epoch": "2025-12-13T04:54:13.391424",
        "meta_mean_motion": 1.00270841,
        "meta_eccentricity": 0.00045373,
        "meta_inclination": 0.061,
        "meta_ra_of_asc_node": 350.2392,
        "meta_arg_of_pericenter": 239.9894,
        "meta_mean_anomaly": 288.5624,
        "meta_ephemeris_type": 0,
        "meta_classification_type": "U",
        "meta_norad_cat_id": 39773,
        "meta_element_set_no": 999,
        "meta_rev_at_epoch": 4220,
        "meta_bstar": 0,
        "meta_mean_motion_dot": 3.3e-07,
        "meta_mean_motion_ddot": 0,
        "tle_line1": "1 39773U 14030A   25347.20432166  .00000033  00000+0  00000+0 0  9996",
        "tle_line2": "2 39773   0.0610 350.2392 0004537 239.9894 288.5624  1.00270841 42201"
      },
      "geometry": {
        "type": "Point",
        "coordinates": [
          35.59572501066721,
          0.06033512930588514
        ]
      }
    },
    {
      "type": "Feature",
      "properties": {
        "norad_id": 40425,
        "name": "EUTELSAT 115 WEST B",
        "group": "eutelsat",
        "lat": -0.0004138705979898247,
        "lon": -82.39361544201603,
        "alt_km": 35785.64665021602,
        "timestamp": "2025-12-13T20:38:50.666784+00:00",
        "meta_object_name": "EUTELSAT 115 WEST B",
        "meta_object_id": "2015-010B",
        "meta_epoch": "2025-12-12T23:12:23.635008",
        "meta_mean_motion": 1.00273842,
        "meta_eccentricity": 7.22e-06,
        "meta_inclination": 0.0199,
        "meta_ra_of_asc_node": 163.8927,
        "meta_arg_of_pericenter": 349.5019,
        "meta_mean_anomaly": 161.7193,
        "meta_ephemeris_type": 0,
        "meta_classification_type": "U",
        "meta_norad_cat_id": 40425,
        "meta_element_set_no": 999,
        "meta_rev_at_epoch": 3952,
        "meta_bstar": 0,
        "meta_mean_motion_dot": -1.3e-07,
        "meta_mean_motion_ddot": 0,
        "tle_line1": "1 40425U 15010B   25346.96694022 -.00000013  00000+0  00000+0 0  9993",
        "tle_line2": "2 40425   0.0199 163.8927 0000072 349.5019 161.7193  1.00273842 39526"
      },
      "geometry": {
        "type": "Point",
        "coordinates": [
          -82.39361544201603,
          -0.0004138705979898247
        ]
      }
    },
    {
      "type": "Feature",
      "properties": {
        "norad_id": 40875,
        "name": "EUTELSAT 8 WEST B",
        "group": "eutelsat",
        "lat": 0.031483775589933795,
        "lon": 24.545241477248958,
        "alt_km": 35795.47596808451,
        "timestamp": "2025-12-13T20:38:50.666795+00:00",
        "meta_object_name": "EUTELSAT 8 WEST B",
        "meta_object_id": "2015-039B",
        "meta_epoch": "2025-12-13T04:51:06.190272",
        "meta_mean_motion": 1.00271685,
        "meta_eccentricity": 0.00042245,
        "meta_inclination": 0.0659,
        "meta_ra_of_asc_node": 9.0443,
        "meta_arg_of_pericenter": 253.9017,
        "meta_mean_anomaly": 243.9823,
        "meta_ephemeris_type": 0,
        "meta_classification_type": "U",
        "meta_norad_cat_id": 40875,
        "meta_element_set_no": 999,
        "meta_rev_at_epoch": 3779,
        "meta_bstar": 0,
        "meta_mean_motion_dot": -5.2e-07,
        "meta_mean_motion_ddot": 0,
        "tle_line1": "1 40875U 15039B   25347.20215498 -.00000052  00000+0  00000+0 0  9990",
        "tle_line2": "2 40875   0.0659   9.0443 0004224 253.9017 243.9823  1.00271685 37792"
      },
      "geometry": {
        "type": "Point",
        "coordinates": [
          24.545241477248958,
          0.031483775589933795
        ]
      }
    },
    {
      "type": "Feature",
      "properties": {
        "norad_id": 41310,
        "name": "EUTELSAT 9B",
        "group": "eutelsat",
        "lat": 0.00019179567589483278,
        "lon": 41.52662221272672,
        "alt_km": 35799.257798881,
        "timestamp": "2025-12-13T20:38:50.666807+00:00",
        "meta_object_name": "EUTELSAT 9B",
        "meta_object_id": "2016-005A",
        "meta_epoch": "2025-12-13T04:55:50.735712",
        "meta_mean_motion": 1.00270256,
        "meta_eccentricity": 0.00046258,
        "meta_inclination": 0.0461,
        "meta_ra_of_asc_node": 65.0532,
        "meta_arg_of_pericenter": 205.7172,
        "meta_mean_anomaly": 254.3324,
        "meta_ephemeris_type": 0,
        "meta_classification_type": "U",
        "meta_norad_cat_id": 41310,
        "meta_element_set_no": 999,
        "meta_rev_at_epoch": 3625,
        "meta_bstar": 0,
        "meta_mean_motion_dot": 7.5e-07,
        "meta_mean_motion_ddot": 0,
        "tle_line1": "1 41310U 16005A   25347.20544833  .00000075  00000+0  00000+0 0  9991",
        "tle_line2": "2 41310   0.0461  65.0532 0004625 205.7172 254.3324  1.00270256 36256"
      },
      "geometry": {
        "type": "Point",
        "coordinates": [
          41.52662221272672,
          0.00019179567589483278
        ]
      }
    },
    {
      "type": "Feature",
      "properties": {
        "norad_id": 41382,
        "name": "EUTELSAT 65 WEST A",
        "group": "eutelsat",
        "lat": -0.04244162503090681,
        "lon": -32.68511158749371,
        "alt_km": 35780.45814193292,
        "timestamp": "2025-12-13T20:38:50.666819+00:00",
        "meta_object_name": "EUTELSAT 65 WEST A",
        "meta_object_id": "2016-014A",
        "meta_epoch": "2025-12-13T04:34:45.254784",
        "meta_mean_motion": 1.00271825,
        "meta_eccentricity": 0.00024801,
        "meta_inclination": 0.0523,
        "meta_ra_of_asc_node": 15.6423,
        "meta_arg_of_pericenter": 254.5955,
        "meta_mean_anomaly": 175.3791,
        "meta_ephemeris_type": 0,
        "meta_classification_type": "U",
        "meta_norad_cat_id": 41382,
        "meta_element_set_no": 999,
        "meta_rev_at_epoch": 3567,
        "meta_bstar": 0,
        "meta_mean_motion_dot": -2.63e-06,
        "meta_mean_motion_ddot": 0,
        "tle_line1": "1 41382U 16014A   25347.19080156 -.00000263  00000+0  00000+0 0  9991",
        "tle_line2": "2 41382   0.0523  15.6423 0002480 254.5955 175.3791  1.00271825 35670"
      },
      "geometry": {
        "type": "Point",
        "coordinates": [
          -32.68511158749371,
          -0.04244162503090681
        ]
      }
    },
    {
      "type": "Feature",
      "properties": {
        "norad_id": 41589,
        "name": "EUTELSAT 117 WEST B",
        "group": "eutelsat",
        "lat": 0.007075428690899162,
        "lon": -84.49010518404603,
        "alt_km": 35786.92610785923,
        "timestamp": "2025-12-13T20:38:50.666835+00:00",
        "meta_object_name": "EUTELSAT 117 WEST B",
        "meta_object_id": "2016-038B",
        "meta_epoch": "2025-12-12T23:11:46.195296",
        "meta_mean_motion": 1.00271866,
        "meta_eccentricity": 2.512e-05,
        "meta_inclination": 0.011,
        "meta_ra_of_asc_node": 153.7448,
        "meta_arg_of_pericenter": 269.9053,
        "meta_mean_anomaly": 249.2194,
        "meta_ephemeris_type": 0,
        "meta_classification_type": "U",
        "meta_norad_cat_id": 41589,
        "meta_element_set_no": 999,
        "meta_rev_at_epoch": 3479,
        "meta_bstar": 0,
        "meta_mean_motion_dot": 1e-08,
        "meta_mean_motion_ddot": 0,
        "tle_line1": "1 41589U 16038B   25346.96650689  .00000001  00000+0  00000+0 0  9993",
        "tle_line2": "2 41589   0.0110 153.7448 0000251 269.9053 249.2194  1.00271866 34790"
      },
      "geometry": {
        "type": "Point",
        "coordinates": [
          -84.49010518404603,
          0.007075428690899162
        ]
      }
    },
    {
      "type": "Feature",
      "properties": {
        "norad_id": 42741,
        "name": "EUTELSAT 172B",
        "group": "eutelsat",
        "lat": 0.0002810354449841289,
        "lon": -155.5265240418065,
        "alt_km": 35786.93405934592,
        "timestamp": "2025-12-13T20:38:50.666847+00:00",
        "meta_object_name": "EUTELSAT 172B",
        "meta_object_id": "2017-029B",
        "meta_epoch": "2025-12-13T07:23:38.817024",
        "meta_mean_motion": 1.00270678,
        "meta_eccentricity": 1.343e-05,
        "meta_inclination": 0.0368,
        "meta_ra_of_asc_node": 140.3237,
        "meta_arg_of_pericenter": 243.4005,
        "meta_mean_anomaly": 341.416,
        "meta_ephemeris_type": 0,
        "meta_classification_type": "U",
        "meta_norad_cat_id": 42741,
        "meta_element_set_no": 999,
        "meta_rev_at_epoch": 3186,
        "meta_bstar": 0,
        "meta_mean_motion_dot": 8e-08,
        "meta_mean_motion_ddot": 0,
        "tle_line1": "1 42741U 17029B   25347.30808816  .00000008  00000+0  00000+0 0  9998",
        "tle_line2": "2 42741   0.0368 140.3237 0000134 243.4005 341.4160  1.00270678 31861"
      },
      "geometry": {
        "type": "Point",
        "coordinates": [
          -155.5265240418065,
          0.0002810354449841289
        ]
      }
    }
  ]
}